     2.11           N: GPS NAV DATA                         RINEX VERSION / TYPE
teqc  2016Apr1      cors-adm            20161104 00:46:30UTCPGM / RUN BY / DATE
Solaris x86 5.10|AMD64|cc SC5.8 -xarch=amd64|=+|=+          COMMENT
     2.10           N: GPS NAV DATA                         COMMENT
rvacn.e(1404.07)                        2016-11-04T00:31 GMTCOMMENT
This file contains the validated broadcast navigation       COMMENT
messages from the following files:                          COMMENT
aaaa3080.16n, algo308x.16n, alic308x.16n, amc2308x.16n,     COMMENT
bor1308x.16n, chpi308x.16n, chur308x.16n, coco308x.16n,     COMMENT
cord308x.16n, cro1308x.16n, darw308x.16n, dgar308x.16n,     COMMENT
drao308x.16n, dubo308x.16n, flin308x.16n, glps308x.16n,     COMMENT
glsv308x.16n, gode308x.16n, gold308x.16n, guam308x.16n,     COMMENT
hlfx308x.16n, hofn308x.16n, hrao308x.16n, iisc308x.16n,     COMMENT
joze308x.16n, kit3308x.16n, kokb308x.16n, lhaz308x.16n,     COMMENT
lpgs308x.16n, madr308x.16n, mas1308x.16n, mate308x.16n,     COMMENT
mbar308x.16n, mcm4308x.16n, nico308x.16n, nlib308x.16n,     COMMENT
not1308x.16n, nrc1308x.16n, nya1308x.16n, nyal308x.16n,     COMMENT
ohi3308x.16n, onsa308x.16n, pie1308x.16n, pimo308x.16n,     COMMENT
pots308x.16n, quin308x.16n, rabt308x.16n, reun308x.16n,     COMMENT
reyk308x.16n, sch2308x.16n, stjo308x.16n, suth308x.16n,     COMMENT
syog308x.16n, tidb308x.16n, tow2308x.16n, tro1308x.16n,     COMMENT
tskb308x.16n, ulab308x.16n, unsa308x.16n, vill308x.16n,     COMMENT
whit308x.16n, wsrt308x.16n, wtzr308x.16n, yell308x.16n,     COMMENT
zimm308x.16n                                                COMMENT
    1.2107D-08 -7.4506D-09 -1.1921D-07  5.9605D-08          ION ALPHA
    9.6256D+04 -3.2768D+04 -1.9661D+05  1.9661D+05          ION BETA
    9.313225746155D-10 8.881784197001D-16    61440     1922 DELTA-UTC: A0,A1,T,W
                                                            END OF HEADER
30 16 11  2 22  0  0.0 1.560277305543D-04 1.136868377216D-12 0.000000000000D+00
    2.300000000000D+01 9.315625000000D+01 4.773770275265D-09-3.347525147573D-01
    4.727393388748D-06 2.374179777689D-03 4.792585968971D-06 5.153758516312D+03
    3.384000000000D+05 1.117587089539D-08-1.841715903340D+00-7.450580596924D-09
    9.502270788291D-01 2.813437500000D+02-3.122175998774D+00-8.342847513086D-09
    1.239337337660D-10 1.000000000000D+00 1.921000000000D+03 0.000000000000D+00
    2.000000000000D+00 0.000000000000D+00 3.725290298462D-09 2.300000000000D+01
    3.363420000000D+05 4.000000000000D+00
31 16 11  2 22  0  0.0 2.389666624367D-04-2.160049916711D-12 0.000000000000D+00
    7.300000000000D+01 1.030625000000D+02 4.419826960677D-09-4.776711993228D-01
    5.319714546204D-06 8.441240875982D-03 5.515292286873D-06 5.153585979462D+03
    3.384000000000D+05 7.636845111847D-08-1.873547003862D+00-1.527369022369D-07
    9.692603730365D-01 2.788437500000D+02-3.637995388082D-01-8.221413883460D-09
    2.046513816944D-10 1.000000000000D+00 1.921000000000D+03 0.000000000000D+00
    2.000000000000D+00 0.000000000000D+00-1.350417733192D-08 7.300000000000D+01
    3.312000000000D+05
32 16 11  2 22  0  0.0-1.811250112951D-04-1.648459146963D-11 0.000000000000D+00
    8.000000000000D+00 3.606250000000D+01 4.388397201183D-09 3.017510016524D+00
    1.858919858932D-06 6.057819118723D-04 1.088902354240D-05 5.153665077209D+03
    3.384000000000D+05-7.450580596924D-09-2.959835098841D+00-5.215406417847D-08
    9.593510706743D-01 1.679687500000D+02-2.466348295089D+00-7.817468450355D-09
   -3.696582484558D-10 1.000000000000D+00 1.921000000000D+03 0.000000000000D+00
    2.000000000000D+00 0.000000000000D+00 4.656612873077D-10 8.000000000000D+00
    3.311400000000D+05 4.000000000000D+00
14 16 11  2 23 59 28.0-4.323897883296D-05-1.705302565824D-12 0.000000000000D+00
    4.800000000000D+01 5.087500000000D+01 4.218747156324D-09 3.067650357505D+00
    2.579763531685D-06 8.701855200343D-03 1.106597483158D-05 5.153606016159D+03
    3.455680000000D+05 1.192092895508D-07-2.877062632155D+00-1.639127731323D-07
    9.635402960523D-01 1.651875000000D+02-1.943426072777D+00-7.638532461252D-09
   -2.878691337620D-10 1.000000000000D+00 1.921000000000D+03 0.000000000000D+00
    2.000000000000D+00 0.000000000000D+00-9.313225746155D-09 4.800000000000D+01
    3.400200000000D+05 4.000000000000D+00
10 16 11  2 23 59 44.0-1.121270470321D-04-2.160049916711D-12 0.000000000000D+00
    0.000000000000D+00-1.871875000000D+01 4.870917178966D-09-6.848784274555D-01
   -9.592622518539D-07 1.849648077041D-03 5.930662155151D-06 5.153670665741D+03
    3.455840000000D+05 3.911554813385D-08 2.279559658273D+00 1.303851604462D-08
    9.595207501535D-01 2.631250000000D+02-2.931472499551D+00-8.159268437710D-09
   -1.875078104529D-10 1.000000000000D+00 1.921000000000D+03 0.000000000000D+00
    2.000000000000D+00 0.000000000000D+00 2.328306436539D-09 0.000000000000D+00
    3.425100000000D+05 4.000000000000D+00
13 16 11  2 23 59 44.0-5.279853940010D-05-2.046363078990D-12 0.000000000000D+00
    1.000000000000D+00 4.446875000000D+01 4.140172454800D-09 1.733391784710D+00
    2.318993210790D-06 4.006899660450D-03 1.108273863790D-05 5.153693920140D+03
    3.455840000000D+05 6.146728992460D-08-2.839005058240D+00-2.793967723850D-08
    9.710341290230D-01 1.720000000000D+02 1.910505668820D+00-7.673891076940D-09
   -1.864363372500D-10 1.000000000000D+00 1.921000000000D+03 0.000000000000D+00
    2.400000000000D+00 0.000000000000D+00-1.117587089540D-08 1.000000000000D+00
    3.438180000000D+05 4.000000000000D+00
20 16 11  2 23 59 44.0 4.440248012540D-04 1.932676241270D-12 0.000000000000D+00
    2.700000000000D+01-1.618750000000D+01 5.685236812930D-09 2.621308467560D+00
   -9.369105100630D-07 4.758717259390D-03 5.036592483520D-06 5.153593795780D+03
    3.455840000000D+05 4.284083843230D-08 2.193243544640D+00-7.078051567080D-08
    9.262761313700D-01 2.645937500000D+02 1.478549151210D+00-8.532498269940D-09
   -1.500062483620D-10 1.000000000000D+00 1.921000000000D+03 0.000000000000D+00
    2.400000000000D+00 0.000000000000D+00-8.381903171540D-09 2.700000000000D+01
    3.438780000000D+05 4.000000000000D+00
28 16 11  2 23 59 44.0 5.640485323966D-04 2.955857780762D-12 0.000000000000D+00
    1.700000000000D+01-5.421875000000D+01 3.965165165045D-09-1.913088365844D+00
   -2.576038241386D-06 2.005468448624D-02 2.691522240639D-06 5.153631860733D+03
    3.455840000000D+05 3.632158041000D-07-7.799061948406D-01 2.980232238770D-07
    9.892295515301D-01 3.405937500000D+02-1.605256479821D+00-7.796753337501D-09
   -2.789401904071D-10 1.000000000000D+00 1.921000000000D+03 0.000000000000D+00
    2.000000000000D+00 0.000000000000D+00-1.117587089539D-08 1.700000000000D+01
    3.423000000000D+05
 1 16 11  3  0  0  0.0 3.923522308469D-05 1.250555214938D-12 0.000000000000D+00
    4.000000000000D+00 1.200000000000D+01 4.437327689652D-09 1.366251714897D+00
    5.941838026047D-07 5.964509560727D-03 8.357688784599D-06 5.153698839188D+03
    3.456000000000D+05-1.676380634308D-08 1.241175987596D+00 8.195638656616D-08
    9.652881101129D-01 2.201562500000D+02 5.648210519097D-01-7.973189258193D-09
    4.678766317969D-10 1.000000000000D+00 1.921000000000D+03 0.000000000000D+00
    2.000000000000D+00 0.000000000000D+00 5.122274160385D-09 4.000000000000D+00
    3.422100000000D+05 4.000000000000D+00
 2 16 11  3  0  0  0.0 5.310834385455D-04-5.456968210638D-12 0.000000000000D+00
    6.300000000000D+01 1.309375000000D+01 4.818772149774D-09 1.839304404308D+00
    5.606561899185D-07 1.608228473924D-02 8.324161171913D-06 5.153666883469D+03
    3.456000000000D+05-2.793967723846D-07 1.192190699437D+00-3.874301910400D-07
    9.441568260701D-01 2.095937500000D+02-2.072112005405D+00-8.143196339671D-09
    5.482371219910D-10 1.000000000000D+00 1.921000000000D+03 0.000000000000D+00
    2.000000000000D+00 0.000000000000D+00-2.002343535423D-08 6.300000000000D+01
    3.416100000000D+05
 3 16 11  3  0  0  0.0-9.611761197448D-05-2.160049916711D-12 0.000000000000D+00
    6.800000000000D+01-1.518750000000D+01 4.943420199008D-09 1.633192819894D-02
   -8.270144462585D-07 3.257653443143D-04 5.891546607018D-06 5.153580453873D+03
    3.456000000000D+05 2.607703208923D-08 2.283429108776D+00 2.607703208923D-08
    9.593164682729D-01 2.692812500000D+02 8.107122725517D-01-8.154625387165D-09
   -1.471489864888D-10 1.000000000000D+00 1.921000000000D+03 0.000000000000D+00
    2.000000000000D+00 0.000000000000D+00 1.862645149231D-09 6.800000000000D+01
    3.384000000000D+05
 4 16 11  3  0  0  0.0 1.325085759163D-05 3.069544618484D-12 0.000000000000D+00
    6.400000000000D+01 4.490625000000D+01 4.257677349352D-09-1.349276360216D+00
    2.283602952957D-06 8.386600180529D-03 1.142919063568D-05 5.153599115372D+03
    3.456000000000D+05-2.011656761169D-07-2.840529897255D+00-1.490116119385D-08
    9.665543578744D-01 1.670937500000D+02-9.780255505756D-01-7.865684780200D-09
   -1.396486740707D-10 1.000000000000D+00 1.921000000000D+03 0.000000000000D+00
    4.000000000000D+00 6.300000000000D+01-4.190951585770D-09 6.400000000000D+01
    3.443280000000D+05 4.000000000000D+00
 5 16 11  3  0  0  0.0-8.052214980125D-05 2.387423592154D-12 0.000000000000D+00
    1.200000000000D+01-1.996875000000D+01 5.204502502705D-09-1.981496543776D+00
   -1.315027475357D-06 4.865727270953D-03 5.433335900307D-06 5.153619764328D+03
    3.456000000000D+05 7.264316082001D-08 2.269390585547D+00-4.656612873077D-08
    9.463230156835D-01 2.645625000000D+02 5.467239638304D-01-8.337132989339D-09
   -9.536111503035D-11 1.000000000000D+00 1.921000000000D+03 0.000000000000D+00
    2.000000000000D+00 0.000000000000D+00-1.071020960808D-08 1.200000000000D+01
    3.450600000000D+05
